ONEWEB-0230             
1 48769U 21045C   23274.88786813  .00000285  00000+0  72290-3 0  9990
2 48769  87.8941  96.2269 0001812  86.8874 273.2463 13.15545031114595
ONEWEB-0237             
1 48770U 21045D   23275.86604062  .00000013  00000+0  69885-6 0  9994
2 48770  87.8943  95.9499 0002215  79.5696 280.5684 13.15550845115573
ONEWEB-0235             
1 48771U 21045E   23275.76251319 -.00000061  00000+0 -19654-3 0  9998
2 48771  87.8936  96.0006 0002571  78.6287 281.5132 13.15545738115544
ONEWEB-0242             
1 48772U 21045F   23275.07167501 -.00000191  00000+0 -54196-3 0  9996
2 48772  87.8933  96.1295 0002048  86.4667 273.6697 13.15546843115503
ONEWEB-0241             
1 48773U 21045G   23275.05900287 -.00000094  00000+0 -28413-3 0  9996
2 48773  87.8945  96.1543 0001833  70.8403 289.2926 13.15546826115418
ONEWEB-0243             
1 48774U 21045H   23274.93856977  .00000119  00000+0  28262-3 0  9997
2 48774  87.8945  96.1354 0002257  84.3440 275.7947 13.15546928115428
ONEWEB-0222             
1 48775U 21045J   23274.77588839 -.00000028  00000+0 -10782-3 0  9998
2 48775  87.8935  96.2026 0001892  76.4783 283.6558 13.15549650114319
ONEWEB-0244             
1 48776U 21045K   23275.86181728  .00000039  00000+0  68414-4 0  9992
2 48776  87.8931  95.9692 0001935  89.8547 270.2805 13.15552456116143
